CCSDS_OMM_VERS = 2.0
CREATION_DATE  = 
ORIGINATOR     = 

OBJECT_NAME    = UNKNOWN
OBJECT_ID      = 
CENTER_NAME    = EARTH
REF_FRAME      = TEME
TIME_SYSTEM    = UTC
MEAN_ELEMENT_THEORY = SGP/SGP4

EPOCH          = 2026-04-04T04:17:25.157760
MEAN_MOTION    = 13.12620240
ECCENTRICITY   = .086741
INCLINATION    = 65.8129
RA_OF_ASC_NODE = 261.6092
ARG_OF_PERICENTER = 270.2043
MEAN_ANOMALY   = 79.9741

EPHEMERIS_TYPE = 0
CLASSIFICATION_TYPE = U
NORAD_CAT_ID   = 81406
ELEMENT_SET_NO = 999
REV_AT_EPOCH   = 54843
BSTAR          = .5775E-3
MEAN_MOTION_DOT = .1417E-4
MEAN_MOTION_DDOT = 0

CCSDS_OMM_VERS = 2.0
CREATION_DATE  = 
ORIGINATOR     = 

OBJECT_NAME    = UNKNOWN
OBJECT_ID      = 
CENTER_NAME    = EARTH
REF_FRAME      = TEME
TIME_SYSTEM    = UTC
MEAN_ELEMENT_THEORY = SGP/SGP4

EPOCH          = 2026-04-04T03:23:33.720864
MEAN_MOTION    = 14.07137128
ECCENTRICITY   = .0085366
INCLINATION    = 98.7385
RA_OF_ASC_NODE = 337.6244
ARG_OF_PERICENTER = 81.3739
MEAN_ANOMALY   = 279.7090

EPHEMERIS_TYPE = 0
CLASSIFICATION_TYPE = U
NORAD_CAT_ID   = 81427
ELEMENT_SET_NO = 999
REV_AT_EPOCH   = 56757
BSTAR          = .48692E-3
MEAN_MOTION_DOT = .801E-5
MEAN_MOTION_DDOT = 0

CCSDS_OMM_VERS = 2.0
CREATION_DATE  = 
ORIGINATOR     = 

OBJECT_NAME    = UNKNOWN
OBJECT_ID      = 
CENTER_NAME    = EARTH
REF_FRAME      = TEME
TIME_SYSTEM    = UTC
MEAN_ELEMENT_THEORY = SGP/SGP4

EPOCH          = 2026-04-04T15:27:45.225216
MEAN_MOTION    = 13.55352604
ECCENTRICITY   = .0045114
INCLINATION    = 100.3287
RA_OF_ASC_NODE = 336.3345
ARG_OF_PERICENTER = 155.3087
MEAN_ANOMALY   = 205.0220

EPHEMERIS_TYPE = 0
CLASSIFICATION_TYPE = U
NORAD_CAT_ID   = 81438
ELEMENT_SET_NO = 999
REV_AT_EPOCH   = 60723
BSTAR          = .50851E-2
MEAN_MOTION_DOT = .3497E-4
MEAN_MOTION_DDOT = 0

CCSDS_OMM_VERS = 2.0
CREATION_DATE  = 
ORIGINATOR     = 

OBJECT_NAME    = UNKNOWN
OBJECT_ID      = 
CENTER_NAME    = EARTH
REF_FRAME      = TEME
TIME_SYSTEM    = UTC
MEAN_ELEMENT_THEORY = SGP/SGP4

EPOCH          = 2026-04-02T22:31:40.292256
MEAN_MOTION    = 12.62684224
ECCENTRICITY   = .0596393
INCLINATION    = 67.1590
RA_OF_ASC_NODE = 286.7865
ARG_OF_PERICENTER = 134.4971
MEAN_ANOMALY   = 230.6421

EPHEMERIS_TYPE = 0
CLASSIFICATION_TYPE = U
NORAD_CAT_ID   = 81439
ELEMENT_SET_NO = 999
REV_AT_EPOCH   = 27593
BSTAR          = .12101E-2
MEAN_MOTION_DOT = .382E-5
MEAN_MOTION_DDOT = 0

CCSDS_OMM_VERS = 2.0
CREATION_DATE  = 
ORIGINATOR     = 

OBJECT_NAME    = UNKNOWN
OBJECT_ID      = 
CENTER_NAME    = EARTH
REF_FRAME      = TEME
TIME_SYSTEM    = UTC
MEAN_ELEMENT_THEORY = SGP/SGP4

EPOCH          = 2026-04-03T04:30:26.561952
MEAN_MOTION    = 15.27760381
ECCENTRICITY   = .0012331
INCLINATION    = 66.7903
RA_OF_ASC_NODE = 21.4435
ARG_OF_PERICENTER = 359.0773
MEAN_ANOMALY   = 1.0351

EPHEMERIS_TYPE = 0
CLASSIFICATION_TYPE = U
NORAD_CAT_ID   = 81449
ELEMENT_SET_NO = 999
REV_AT_EPOCH   = 65039
BSTAR          = .13089E-1
MEAN_MOTION_DOT = .375366E-2
MEAN_MOTION_DDOT = 0

CCSDS_OMM_VERS = 2.0
CREATION_DATE  = 
ORIGINATOR     = 

OBJECT_NAME    = UNKNOWN
OBJECT_ID      = 
CENTER_NAME    = EARTH
REF_FRAME      = TEME
TIME_SYSTEM    = UTC
MEAN_ELEMENT_THEORY = SGP/SGP4

EPOCH          = 2026-04-03T17:38:33.533376
MEAN_MOTION    = 14.29283060
ECCENTRICITY   = .0146085
INCLINATION    = 98.9507
RA_OF_ASC_NODE = 13.5908
ARG_OF_PERICENTER = 33.4820
MEAN_ANOMALY   = 30.1628

EPHEMERIS_TYPE = 0
CLASSIFICATION_TYPE = U
NORAD_CAT_ID   = 81478
ELEMENT_SET_NO = 999
REV_AT_EPOCH   = 63893
BSTAR          = .2867E-2
MEAN_MOTION_DOT = .8144E-4
MEAN_MOTION_DDOT = 0

CCSDS_OMM_VERS = 2.0
CREATION_DATE  = 
ORIGINATOR     = 

OBJECT_NAME    = UNKNOWN
OBJECT_ID      = 
CENTER_NAME    = EARTH
REF_FRAME      = TEME
TIME_SYSTEM    = UTC
MEAN_ELEMENT_THEORY = SGP/SGP4

EPOCH          = 2026-04-03T15:07:27.590016
MEAN_MOTION    = 13.56569756
ECCENTRICITY   = .0045225
INCLINATION    = 99.9886
RA_OF_ASC_NODE = 332.9015
ARG_OF_PERICENTER = 82.0319
MEAN_ANOMALY   = 306.4772

EPHEMERIS_TYPE = 0
CLASSIFICATION_TYPE = U
NORAD_CAT_ID   = 81488
ELEMENT_SET_NO = 999
REV_AT_EPOCH   = 61180
BSTAR          = .61695E-3
MEAN_MOTION_DOT = .392E-5
MEAN_MOTION_DDOT = 0

CCSDS_OMM_VERS = 2.0
CREATION_DATE  = 
ORIGINATOR     = 

OBJECT_NAME    = UNKNOWN
OBJECT_ID      = 
CENTER_NAME    = EARTH
REF_FRAME      = TEME
TIME_SYSTEM    = UTC
MEAN_ELEMENT_THEORY = SGP/SGP4

EPOCH          = 2026-04-04T12:33:53.684064
MEAN_MOTION    = 13.85074317
ECCENTRICITY   = .002913
INCLINATION    = 100.2997
RA_OF_ASC_NODE = 5.0138
ARG_OF_PERICENTER = 82.9384
MEAN_ANOMALY   = 96.9612

EPHEMERIS_TYPE = 0
CLASSIFICATION_TYPE = U
NORAD_CAT_ID   = 81497
ELEMENT_SET_NO = 999
REV_AT_EPOCH   = 23190
BSTAR          = .4365E-2
MEAN_MOTION_DOT = .491E-4
MEAN_MOTION_DDOT = 0

CCSDS_OMM_VERS = 2.0
CREATION_DATE  = 
ORIGINATOR     = 

OBJECT_NAME    = UNKNOWN
OBJECT_ID      = 
CENTER_NAME    = EARTH
REF_FRAME      = TEME
TIME_SYSTEM    = UTC
MEAN_ELEMENT_THEORY = SGP/SGP4

EPOCH          = 2026-04-01T12:37:27.693408
MEAN_MOTION    = 14.47834467
ECCENTRICITY   = .0001649
INCLINATION    = 74.0502
RA_OF_ASC_NODE = 15.9008
ARG_OF_PERICENTER = 170.0115
MEAN_ANOMALY   = 190.1077

EPHEMERIS_TYPE = 0
CLASSIFICATION_TYPE = U
NORAD_CAT_ID   = 81499
ELEMENT_SET_NO = 999
REV_AT_EPOCH   = 49830
BSTAR          = .63081E-3
MEAN_MOTION_DOT = .2308E-4
MEAN_MOTION_DDOT = 0

CCSDS_OMM_VERS = 2.0
CREATION_DATE  = 
ORIGINATOR     = 

OBJECT_NAME    = UNKNOWN
OBJECT_ID      = 
CENTER_NAME    = EARTH
REF_FRAME      = TEME
TIME_SYSTEM    = UTC
MEAN_ELEMENT_THEORY = SGP/SGP4

EPOCH          = 2026-04-02T11:51:05.448384
MEAN_MOTION    = 14.13713517
ECCENTRICITY   = .023489
INCLINATION    = 98.1871
RA_OF_ASC_NODE = 170.6098
ARG_OF_PERICENTER = 187.7371
MEAN_ANOMALY   = 172.0155

EPHEMERIS_TYPE = 0
CLASSIFICATION_TYPE = U
NORAD_CAT_ID   = 81535
ELEMENT_SET_NO = 999
REV_AT_EPOCH   = 40304
BSTAR          = .81001E-3
MEAN_MOTION_DOT = .1953E-4
MEAN_MOTION_DDOT = 0

CCSDS_OMM_VERS = 2.0
CREATION_DATE  = 
ORIGINATOR     = 

OBJECT_NAME    = UNKNOWN
OBJECT_ID      = 
CENTER_NAME    = EARTH
REF_FRAME      = TEME
TIME_SYSTEM    = UTC
MEAN_ELEMENT_THEORY = SGP/SGP4

EPOCH          = 2026-04-04T01:51:42.198336
MEAN_MOTION    = 12.56016470
ECCENTRICITY   = .0026577
INCLINATION    = 101.9668
RA_OF_ASC_NODE = 321.5145
ARG_OF_PERICENTER = 57.6891
MEAN_ANOMALY   = 105.0781

EPHEMERIS_TYPE = 0
CLASSIFICATION_TYPE = U
NORAD_CAT_ID   = 81536
ELEMENT_SET_NO = 999
REV_AT_EPOCH   = 56591
BSTAR          = .50179E-2
MEAN_MOTION_DOT = .781E-5
MEAN_MOTION_DDOT = 0

CCSDS_OMM_VERS = 2.0
CREATION_DATE  = 
ORIGINATOR     = 

OBJECT_NAME    = UNKNOWN
OBJECT_ID      = 
CENTER_NAME    = EARTH
REF_FRAME      = TEME
TIME_SYSTEM    = UTC
MEAN_ELEMENT_THEORY = SGP/SGP4

EPOCH          = 2026-04-04T15:18:40.982976
MEAN_MOTION    = 14.07176850
ECCENTRICITY   = .0077737
INCLINATION    = 71.0381
RA_OF_ASC_NODE = 235.6590
ARG_OF_PERICENTER = 340.7092
MEAN_ANOMALY   = 19.1086

EPHEMERIS_TYPE = 0
CLASSIFICATION_TYPE = U
NORAD_CAT_ID   = 81537
ELEMENT_SET_NO = 999
REV_AT_EPOCH   = 63634
BSTAR          = .367E-3
MEAN_MOTION_DOT = .585E-5
MEAN_MOTION_DDOT = 0

